STARLINK-30399
1 57951U 23148S   25329.78319928 -.00000572  00000+0 -72086-5 0  9996
2 57951  53.1597 146.9069 0001132  83.1948 276.9182 15.30190923122513